{
    "links": {
        "self": "http://www.neowsapp.com/rest/v1/neo/3795097?api_key=iIulBulltgU6a56xZRHN4H3l9WmuAYTsLGpBGhQ2"
    },
    "id": "3795097",
    "neo_reference_id": "3795097",
    "name": "(2017 YX5)",
    "designation": "2017 YX5",
    "nasa_jpl_url": "http://ssd.jpl.nasa.gov/sbdb.cgi?sstr=3795097",
    "absolute_magnitude_h": 25.0,
    "estimated_diameter": {
        "kilometers": {
            "estimated_diameter_min": 0.02658,
            "estimated_diameter_max": 0.0594346868
        },
        "meters": {
            "estimated_diameter_min": 26.58,
            "estimated_diameter_max": 59.4346868419
        },
        "miles": {
            "estimated_diameter_min": 0.0165160412,
            "estimated_diameter_max": 0.0369309908
        },
        "feet": {
            "estimated_diameter_min": 87.2047272,
            "estimated_diameter_max": 194.9956979785
        }
    },
    "is_potentially_hazardous_asteroid": false,
    "close_approach_data": [
        {
            "close_approach_date": "2018-01-11",
            "close_approach_date_full": "2018-Jan-11 19:58",
            "epoch_date_close_approach": 1515700680000,
            "relative_velocity": {
                "kilometers_per_second": "8.5684604096",
                "kilometers_per_hour": "30846.4574743926",
                "miles_per_hour": "19166.7890901302"
            },
            "miss_distance": {
                "astronomical": "0.0773016398",
                "lunar": "30.0703378822",
                "kilometers": "11564160.661587226",
                "miles": "7185636.2327306788"
            },
            "orbiting_body": "Earth"
        }
    ],
    "orbital_data": {
        "orbit_id": "2",
        "orbit_determination_date": "2017-12-31 06:21:58",
        "first_observation_date": "2017-12-25",
        "last_observation_date": "2017-12-28",
        "data_arc_in_days": 3,
        "observations_used": 15,
        "orbit_uncertainty": "8",
        "minimum_orbit_intersection": ".0773562",
        "jupiter_tisserand_invariant": "3.549",
        "epoch_osculation": "2458113.5",
        "eccentricity": ".5345978117452742",
        "semi_major_axis": "2.096212561235431",
        "inclination": "6.017939350894532",
        "ascending_node_longitude": "248.3341479662298",
        "orbital_period": "1108.540094243714",
        "perihelion_distance": ".9755819130460128",
        "perihelion_argument": "249.6862752789103",
        "aphelion_distance": "3.216843209424848",
        "perihelion_time": "2458151.884792073836",
        "mean_anomaly": "347.5344832195642",
        "mean_motion": ".324751447303857",
        "equinox": "J2000",
        "orbit_class": {
            "orbit_class_type": "APO",
            "orbit_class_description": "Near-Earth asteroid orbits which cross the Earth’s orbit similar to that of 1862 Apollo",
            "orbit_class_range": "a (semi-major axis) > 1.0 AU; q (perihelion) < 1.017 AU"
        }
    },
    "is_sentry_object": false
}